[{"OBJECT_NAME":"STARLINK-35333","OBJECT_ID":"2025-243F","EPOCH":"2025-11-28T04:00:03.998880","MEAN_MOTION":15.31028133,"ECCENTRICITY":0.0001266,"INCLINATION":53.1611,"RA_OF_ASC_NODE":357.0914,"ARG_OF_PERICENTER":98.7996,"MEAN_ANOMALY":355.6402,"EPHEMERIS_TYPE":0,"CLASSIFICATION_TYPE":"U","NORAD_CAT_ID":66182,"ELEMENT_SET_NO":999,"REV_AT_EPOCH":591,"BSTAR":0.00023589,"MEAN_MOTION_DOT":6.812e-5,"MEAN_MOTION_DDOT":0},{"OBJECT_NAME":"STARLINK-35310","OBJECT_ID":"2025-243G","EPOCH":"2025-11-28T04:00:03.998880","MEAN_MOTION":15.30192178,"ECCENTRICITY":0.0001375,"INCLINATION":53.1612,"RA_OF_ASC_NODE":357.0737,"ARG_OF_PERICENTER":95.4595,"MEAN_ANOMALY":8.353,"EPHEMERIS_TYPE":0,"CLASSIFICATION_TYPE":"U","NORAD_CAT_ID":66183,"ELEMENT_SET_NO":999,"REV_AT_EPOCH":602,"BSTAR":0.00020753,"MEAN_MOTION_DOT":5.79e-5,"MEAN_MOTION_DDOT":0},{"OBJECT_NAME":"STARLINK-35317","OBJECT_ID":"2025-243H","EPOCH":"2025-11-28T04:00:03.998880","MEAN_MOTION":15.30185263,"ECCENTRICITY":0.0001862,"INCLINATION":53.161,"RA_OF_ASC_NODE":356.9383,"ARG_OF_PERICENTER":86.0689,"MEAN_ANOMALY":87.5435,"EPHEMERIS_TYPE":0,"CLASSIFICATION_TYPE":"U","NORAD_CAT_ID":66184,"ELEMENT_SET_NO":999,"REV_AT_EPOCH":602,"BSTAR":0.00037897,"MEAN_MOTION_DOT":0.00010876,"MEAN_MOTION_DDOT":0},{"OBJECT_NAME":"STARLINK-35377","OBJECT_ID":"2025-243J","EPOCH":"2025-11-28T04:00:03.998880","MEAN_MOTION":15.30210592,"ECCENTRICITY":0.0001592,"INCLINATION":53.1613,"RA_OF_ASC_NODE":357.0536,"ARG_OF_PERICENTER":115.6655,"MEAN_ANOMALY":359.7281,"EPHEMERIS_TYPE":0,"CLASSIFICATION_TYPE":"U","NORAD_CAT_ID":66185,"ELEMENT_SET_NO":999,"REV_AT_EPOCH":602,"BSTAR":0.00031423,"MEAN_MOTION_DOT":8.962e-5,"MEAN_MOTION_DDOT":0},{"OBJECT_NAME":"STARLINK-35365","OBJECT_ID":"2025-243K","EPOCH":"2025-11-28T04:00:03.998880","MEAN_MOTION":15.30196487,"ECCENTRICITY":0.0001748,"INCLINATION":53.1614,"RA_OF_ASC_NODE":357.0081,"ARG_OF_PERICENTER":86.1839,"MEAN_ANOMALY":52.5177,"EPHEMERIS_TYPE":0,"CLASSIFICATION_TYPE":"U","NORAD_CAT_ID":66186,"ELEMENT_SET_NO":999,"REV_AT_EPOCH":602,"BSTAR":0.00022573,"MEAN_MOTION_DOT":6.331e-5,"MEAN_MOTION_DDOT":0},{"OBJECT_NAME":"STARLINK-35350","OBJECT_ID":"2025-243L","EPOCH":"2025-11-28T04:00:03.998880","MEAN_MOTION":15.30191547,"ECCENTRICITY":9.61e-5,"INCLINATION":53.1611,"RA_OF_ASC_NODE":357.0888,"ARG_OF_PERICENTER":96.1481,"MEAN_ANOMALY":1.8444,"EPHEMERIS_TYPE":0,"CLASSIFICATION_TYPE":"U","NORAD_CAT_ID":66187,"ELEMENT_SET_NO":999,"REV_AT_EPOCH":602,"BSTAR":0.00016799,"MEAN_MOTION_DOT":4.618e-5,"MEAN_MOTION_DDOT":0},{"OBJECT_NAME":"STARLINK-35041","OBJECT_ID":"2025-243M","EPOCH":"2025-11-28T04:00:03.998880","MEAN_MOTION":15.30193149,"ECCENTRICITY":0.00014,"INCLINATION":53.161,"RA_OF_ASC_NODE":356.9035,"ARG_OF_PERICENTER":76.4293,"MEAN_ANOMALY":114.6215,"EPHEMERIS_TYPE":0,"CLASSIFICATION_TYPE":"U","NORAD_CAT_ID":66188,"ELEMENT_SET_NO":999,"REV_AT_EPOCH":602,"BSTAR":0.00029452,"MEAN_MOTION_DOT":8.372e-5,"MEAN_MOTION_DDOT":0},{"OBJECT_NAME":"STARLINK-34694","OBJECT_ID":"2025-243N","EPOCH":"2025-11-28T04:00:03.998880","MEAN_MOTION":15.30125492,"ECCENTRICITY":0.0001099,"INCLINATION":53.1606,"RA_OF_ASC_NODE":356.8339,"ARG_OF_PERICENTER":111.6528,"MEAN_ANOMALY":114.3733,"EPHEMERIS_TYPE":0,"CLASSIFICATION_TYPE":"U","NORAD_CAT_ID":66189,"ELEMENT_SET_NO":999,"REV_AT_EPOCH":602,"BSTAR":0.00052067,"MEAN_MOTION_DOT":0.00015058,"MEAN_MOTION_DDOT":0},{"OBJECT_NAME":"STARLINK-34863","OBJECT_ID":"2025-243P","EPOCH":"2025-11-28T04:00:03.998880","MEAN_MOTION":15.30190958,"ECCENTRICITY":0.000145,"INCLINATION":53.1614,"RA_OF_ASC_NODE":356.9721,"ARG_OF_PERICENTER":84.7538,"MEAN_ANOMALY":71.4047,"EPHEMERIS_TYPE":0,"CLASSIFICATION_TYPE":"U","NORAD_CAT_ID":66190,"ELEMENT_SET_NO":999,"REV_AT_EPOCH":602,"BSTAR":0.00030957,"MEAN_MOTION_DOT":8.818e-5,"MEAN_MOTION_DDOT":0},{"OBJECT_NAME":"STARLINK-35061","OBJECT_ID":"2025-243Q","EPOCH":"2025-11-28T04:00:03.998880","MEAN_MOTION":15.30206753,"ECCENTRICITY":0.0002364,"INCLINATION":53.161,"RA_OF_ASC_NODE":357.109,"ARG_OF_PERICENTER":63.7405,"MEAN_ANOMALY":22.4994,"EPHEMERIS_TYPE":0,"CLASSIFICATION_TYPE":"U","NORAD_CAT_ID":66191,"ELEMENT_SET_NO":999,"REV_AT_EPOCH":602,"BSTAR":0.00083932,"MEAN_MOTION_DOT":0.00024587,"MEAN_MOTION_DDOT":0},{"OBJECT_NAME":"STARLINK-34937","OBJECT_ID":"2025-243R","EPOCH":"2025-11-28T04:00:03.998880","MEAN_MOTION":15.30190991,"ECCENTRICITY":0.0001386,"INCLINATION":53.1607,"RA_OF_ASC_NODE":357.1436,"ARG_OF_PERICENTER":99.1124,"MEAN_ANOMALY":329.7996,"EPHEMERIS_TYPE":0,"CLASSIFICATION_TYPE":"U","NORAD_CAT_ID":66192,"ELEMENT_SET_NO":999,"REV_AT_EPOCH":602,"BSTAR":0.00017323,"MEAN_MOTION_DOT":4.773e-5,"MEAN_MOTION_DDOT":0},{"OBJECT_NAME":"STARLINK-35197","OBJECT_ID":"2025-243S","EPOCH":"2025-11-28T04:00:03.998880","MEAN_MOTION":15.33648342,"ECCENTRICITY":0.0001027,"INCLINATION":53.1595,"RA_OF_ASC_NODE":356.7035,"ARG_OF_PERICENTER":84.3531,"MEAN_ANOMALY":206.7779,"EPHEMERIS_TYPE":0,"CLASSIFICATION_TYPE":"U","NORAD_CAT_ID":66193,"ELEMENT_SET_NO":999,"REV_AT_EPOCH":602,"BSTAR":-0.079511,"MEAN_MOTION_DOT":-0.02334084,"MEAN_MOTION_DDOT":0},{"OBJECT_NAME":"STARLINK-35374","OBJECT_ID":"2025-243T","EPOCH":"2025-11-28T04:00:03.998880","MEAN_MOTION":15.32247816,"ECCENTRICITY":0.00015,"INCLINATION":53.1595,"RA_OF_ASC_NODE":356.735,"ARG_OF_PERICENTER":92.1851,"MEAN_ANOMALY":183.3107,"EPHEMERIS_TYPE":0,"CLASSIFICATION_TYPE":"U","NORAD_CAT_ID":66194,"ELEMENT_SET_NO":999,"REV_AT_EPOCH":602,"BSTAR":-0.054462,"MEAN_MOTION_DOT":-0.01568677,"MEAN_MOTION_DDOT":0},{"OBJECT_NAME":"STARLINK-34813","OBJECT_ID":"2025-243U","EPOCH":"2025-11-28T04:00:03.998880","MEAN_MOTION":15.31849757,"ECCENTRICITY":0.000157,"INCLINATION":53.1603,"RA_OF_ASC_NODE":356.7663,"ARG_OF_PERICENTER":101.991,"MEAN_ANOMALY":157.9459,"EPHEMERIS_TYPE":0,"CLASSIFICATION_TYPE":"U","NORAD_CAT_ID":66195,"ELEMENT_SET_NO":999,"REV_AT_EPOCH":590,"BSTAR":-0.080258,"MEAN_MOTION_DOT":-0.02237048,"MEAN_MOTION_DDOT":0},{"OBJECT_NAME":"STARLINK-35409","OBJECT_ID":"2025-243V","EPOCH":"2025-11-28T04:00:03.998880","MEAN_MOTION":15.30122416,"ECCENTRICITY":0.0001495,"INCLINATION":53.1598,"RA_OF_ASC_NODE":356.7991,"ARG_OF_PERICENTER":55.7049,"MEAN_ANOMALY":187.7578,"EPHEMERIS_TYPE":0,"CLASSIFICATION_TYPE":"U","NORAD_CAT_ID":66196,"ELEMENT_SET_NO":999,"REV_AT_EPOCH":602,"BSTAR":0.00061235,"MEAN_MOTION_DOT":0.00017777,"MEAN_MOTION_DDOT":0},{"OBJECT_NAME":"STARLINK-35518","OBJECT_ID":"2025-243X","EPOCH":"2025-11-28T04:00:03.998880","MEAN_MOTION":15.30181498,"ECCENTRICITY":0.0001576,"INCLINATION":53.1606,"RA_OF_ASC_NODE":356.8685,"ARG_OF_PERICENTER":77.3101,"MEAN_ANOMALY":131.2046,"EPHEMERIS_TYPE":0,"CLASSIFICATION_TYPE":"U","NORAD_CAT_ID":66197,"ELEMENT_SET_NO":999,"REV_AT_EPOCH":602,"BSTAR":0.00054087,"MEAN_MOTION_DOT":0.00015685,"MEAN_MOTION_DDOT":0},{"OBJECT_NAME":"STARLINK-35259","OBJECT_ID":"2025-243W","EPOCH":"2025-11-28T02:12:35.464032","MEAN_MOTION":15.30220974,"ECCENTRICITY":0.0001362,"INCLINATION":53.161,"RA_OF_ASC_NODE":357.5209,"ARG_OF_PERICENTER":101.8396,"MEAN_ANOMALY":258.2758,"EPHEMERIS_TYPE":0,"CLASSIFICATION_TYPE":"U","NORAD_CAT_ID":66198,"ELEMENT_SET_NO":999,"REV_AT_EPOCH":509,"BSTAR":0.001182,"MEAN_MOTION_DOT":0.00034835,"MEAN_MOTION_DDOT":0}]
