STARLINK-35333          
1 66182U 25243F   25332.16671295  .00006812  00000+0  23589-3 0  9997
2 66182  53.1611 357.0914 0001266  98.7996 355.6402 15.31028133  5911
STARLINK-35310          
1 66183U 25243G   25332.16671295  .00005790  00000+0  20753-3 0  9992
2 66183  53.1612 357.0737 0001375  95.4595   8.3530 15.30192178  6023
STARLINK-35317          
1 66184U 25243H   25332.16671295  .00010876  00000+0  37897-3 0  9991
2 66184  53.1610 356.9383 0001862  86.0689  87.5435 15.30185263  6028
STARLINK-35377          
1 66185U 25243J   25332.16671295  .00008962  00000+0  31423-3 0  9994
2 66185  53.1613 357.0536 0001592 115.6655 359.7281 15.30210592  6023
STARLINK-35365          
1 66186U 25243K   25332.16671295  .00006331  00000+0  22573-3 0  9999
2 66186  53.1614 357.0081 0001748  86.1839  52.5177 15.30196487  6027
STARLINK-35350          
1 66187U 25243L   25332.16671295  .00004618  00000+0  16799-3 0  9999
2 66187  53.1611 357.0888 0000961  96.1481   1.8444 15.30191547  6026
STARLINK-35041          
1 66188U 25243M   25332.16671295  .00008372  00000+0  29452-3 0  9991
2 66188  53.1610 356.9035 0001400  76.4293 114.6215 15.30193149  6028
STARLINK-34694          
1 66189U 25243N   25332.16671295  .00015058  00000+0  52067-3 0  9999
2 66189  53.1606 356.8339 0001099 111.6528 114.3733 15.30125492  6025
STARLINK-34863          
1 66190U 25243P   25332.16671295  .00008818  00000+0  30957-3 0  9991
2 66190  53.1614 356.9721 0001450  84.7538  71.4047 15.30190958  6024
STARLINK-35061          
1 66191U 25243Q   25332.16671295  .00024587  00000+0  83932-3 0  9994
2 66191  53.1610 357.1090 0002364  63.7405  22.4994 15.30206753  6026
STARLINK-34937          
1 66192U 25243R   25332.16671295  .00004773  00000+0  17323-3 0  9991
2 66192  53.1607 357.1436 0001386  99.1124 329.7996 15.30190991  6022
STARLINK-35197          
1 66193U 25243S   25332.16671295 -.02334084  00000+0 -79511-1 0  9992
2 66193  53.1595 356.7035 0001027  84.3531 206.7779 15.33648342  6023
STARLINK-35374          
1 66194U 25243T   25332.16671295 -.01568677  00000+0 -54462-1 0  9997
2 66194  53.1595 356.7350 0001500  92.1851 183.3107 15.32247816  6027
STARLINK-34813          
1 66195U 25243U   25332.16671295 -.02237048  00000+0 -80258-1 0  9996
2 66195  53.1603 356.7663 0001570 101.9910 157.9459 15.31849757  5901
STARLINK-35409          
1 66196U 25243V   25332.16671295  .00017777  00000+0  61235-3 0  9994
2 66196  53.1598 356.7991 0001495  55.7049 187.7578 15.30122416  6026
STARLINK-35518          
1 66197U 25243X   25332.16671295  .00015685  00000+0  54087-3 0  9998
2 66197  53.1606 356.8685 0001576  77.3101 131.2046 15.30181498  6026
STARLINK-35259          
1 66198U 25243W   25332.09207713  .00034835  00000+0  11820-2 0  9996
2 66198  53.1610 357.5209 0001362 101.8396 258.2758 15.30220974  5093
